{
    "links": {
        "self": "http://www.neowsapp.com/rest/v1/neo/3740103?api_key=iIulBulltgU6a56xZRHN4H3l9WmuAYTsLGpBGhQ2"
    },
    "id": "3740103",
    "neo_reference_id": "3740103",
    "name": "(2016 AF166)",
    "designation": "2016 AF166",
    "nasa_jpl_url": "http://ssd.jpl.nasa.gov/sbdb.cgi?sstr=3740103",
    "absolute_magnitude_h": 25.4,
    "estimated_diameter": {
        "kilometers": {
            "estimated_diameter_min": 0.022108281,
            "estimated_diameter_max": 0.0494356193
        },
        "meters": {
            "estimated_diameter_min": 22.1082810359,
            "estimated_diameter_max": 49.435619262
        },
        "miles": {
            "estimated_diameter_min": 0.0137374447,
            "estimated_diameter_max": 0.0307178602
        },
        "feet": {
            "estimated_diameter_min": 72.5337327539,
            "estimated_diameter_max": 162.1903570994
        }
    },
    "is_potentially_hazardous_asteroid": false,
    "close_approach_data": [
        {
            "close_approach_date": "2016-01-21",
            "close_approach_date_full": "2016-Jan-21 03:16",
            "epoch_date_close_approach": 1453346160000,
            "relative_velocity": {
                "kilometers_per_second": "11.5307855378",
                "kilometers_per_hour": "41510.8279359904",
                "miles_per_hour": "25793.2141694491"
            },
            "miss_distance": {
                "astronomical": "0.0237712589",
                "lunar": "9.2470197121",
                "kilometers": "3556129.698658543",
                "miles": "2209676.5306841734"
            },
            "orbiting_body": "Earth"
        },
        {
            "close_approach_date": "2069-12-01",
            "close_approach_date_full": "2069-Dec-01 06:46",
            "epoch_date_close_approach": 3153105960000,
            "relative_velocity": {
                "kilometers_per_second": "14.9178634804",
                "kilometers_per_hour": "53704.3085295588",
                "miles_per_hour": "33369.7688193806"
            },
            "miss_distance": {
                "astronomical": "0.0948754982",
                "lunar": "36.9065687998",
                "kilometers": "14193172.445908834",
                "miles": "8819228.4048325492"
            },
            "orbiting_body": "Mars"
        }
    ],
    "orbital_data": {
        "orbit_id": "5",
        "orbit_determination_date": "2017-04-06 08:29:06",
        "first_observation_date": "2016-01-14",
        "last_observation_date": "2016-01-17",
        "data_arc_in_days": 3,
        "observations_used": 25,
        "orbit_uncertainty": "8",
        "minimum_orbit_intersection": ".0218864",
        "jupiter_tisserand_invariant": "3.703",
        "epoch_osculation": "2457402.5",
        "eccentricity": ".5452523476257299",
        "semi_major_axis": "1.941207753458732",
        "inclination": "3.089795140924117",
        "ascending_node_longitude": "325.5319168888269",
        "orbital_period": "987.8851401575197",
        "perihelion_distance": ".8827596686560892",
        "perihelion_argument": "200.1135307495798",
        "aphelion_distance": "2.999655838261375",
        "perihelion_time": "2457441.389573016353",
        "mean_anomaly": "345.8280626797821",
        "mean_motion": ".3644148346462601",
        "equinox": "J2000",
        "orbit_class": {
            "orbit_class_type": "APO",
            "orbit_class_description": "Near-Earth asteroid orbits which cross the Earth’s orbit similar to that of 1862 Apollo",
            "orbit_class_range": "a (semi-major axis) > 1.0 AU; q (perihelion) < 1.017 AU"
        }
    },
    "is_sentry_object": false
}